NORAD_CAT_ID,OBJECT_NAME,OBJECT_TYPE,EPOCH,MEAN_MOTION,ECCENTRICITY,INCLINATION,RA_OF_ASC_NODE,ARG_OF_PERICENTER,MEAN_ANOMALY,BSTAR,MEAN_MOTION_DOT,MEAN_MOTION_DDOT,TLE_LINE0,TLE_LINE1,TLE_LINE2,SEMIMAJOR_AXIS,PERIOD,APOGEE,PERIGEE,DECAYED
52989.0,STARLINK-4293,PAYLOAD,2023-12-27 14:04:31,15.08832839,0.0001407,53.2168,109.3921,88.1456,271.9697,0.00027374,4.07e-05,0.0,0 STARLINK-4293,1 52989U 22076D   23361.58647672  .00004070  00000-0  27374-3 0  9997,2 52989  53.2168 109.3921 0001407  88.1456 271.9697 15.08832839 81466,6917.902,95.438,540.741,538.794,0.0
52989.0,STARLINK-4293,PAYLOAD,2023-12-27 17:15:17,15.08835249,0.0001486,53.2159,108.7955,97.0659,263.0502,0.00032336,4.861e-05,0.0,0 STARLINK-4293,1 52989U 22076D   23361.71895468  .00004861  00000-0  32336-3 0  9992,2 52989  53.2159 108.7955 0001486  97.0659 263.0502 15.08835249 81484,6917.895,95.438,540.788,538.732,0.0
52989.0,STARLINK-4293,PAYLOAD,2023-12-28 12:19:55,15.08841832,0.0001422,53.2174,105.2237,93.1809,266.9345,-1.7576e-05,-5.68e-06,0.0,0 STARLINK-4293,1 52989U 22076D   23362.51384137 -.00000568  00000-0 -17576-4 0  9999,2 52989  53.2174 105.2237 0001422  93.1809 266.9345 15.08841832 82078,6917.875,95.437,540.724,538.756,0.0
52989.0,STARLINK-4293,PAYLOAD,2023-12-28 13:55:18,15.08842493,0.0001412,53.2173,104.9261,94.1012,266.0141,-1.4276e-05,-5.15e-06,0.0,0 STARLINK-4293,1 52989U 22076D   23362.58008049 -.00000515  00000-0 -14276-4 0  9997,2 52989  53.2173 104.9261 0001412  94.1012 266.0141 15.08842493 81614,6917.873,95.437,540.715,538.761,0.0
52989.0,STARLINK-4293,PAYLOAD,2023-12-29 12:10:42,15.08846283,0.0001304,53.2162,100.7625,85.8031,274.3111,8.1636e-06,-1.58e-06,0.0,0 STARLINK-4293,1 52989U 22076D   23363.50743827 -.00000158  00000-0  81636-5 0  9997,2 52989  53.2162 100.7625 0001304  85.8031 274.3111 15.08846283 81753,6917.861,95.437,540.628,538.824,0.0
52989.0,STARLINK-4293,PAYLOAD,2023-12-30 12:01:29,15.0884216,0.0001399,53.2168,96.3082,94.2851,265.8301,0.00010614,1.402e-05,0.0,0 STARLINK-4293,1 52989U 22076D   23364.50103821  .00001402  00000-0  10614-3 0  9990,2 52989  53.2168  96.3082 0001399  94.2851 265.8301 15.08842160 82379,6917.874,95.437,540.707,538.771,0.0
52989.0,STARLINK-4293,PAYLOAD,2023-12-31 11:52:17,15.08834818,0.0001411,53.2171,91.8487,94.1495,265.9658,9.1731e-06,-1.42e-06,0.0,0 STARLINK-4293,1 52989U 22076D   23365.49464767 -.00000142  00000-0  91731-5 0  9990,2 52989  53.2171  91.8487 0001411  94.1495 265.9658 15.08834818 82524,6917.896,95.438,540.737,538.785,0.0
52989.0,STARLINK-4293,PAYLOAD,2023-12-31 15:03:03,15.08834698,0.0001341,53.2168,91.2509,91.8469,268.2677,6.3483e-05,7.22e-06,0.0,0 STARLINK-4293,1 52989U 22076D   23365.62712605  .00000722  00000-0  63483-4 0  9997,2 52989  53.2168  91.2509 0001341  91.8469 268.2677 15.08834698 82079,6917.897,95.438,540.689,538.834,0.0
52989.0,STARLINK-4293,PAYLOAD,2024-01-01 11:43:04,15.08841347,0.0001306,53.2164,87.3851,94.0254,266.0887,4.3245e-05,4e-06,0.0,0 STARLINK-4293,1 52989U 22076D   24001.48824230  .00000400  00000-0  43245-4 0  9994,2 52989  53.2164  87.3851 0001306  94.0254 266.0887 15.08841347 82673,6917.876,95.437,540.645,538.838,0.0
52989.0,STARLINK-4293,PAYLOAD,2024-01-01 13:18:27,15.08845904,0.0001421,53.2167,87.0879,93.1948,266.9206,1.7829e-05,-4e-08,0.0,0 STARLINK-4293,1 52989U 22076D   24001.55448048 -.00000004  00000-0  17829-4 0  9991,2 52989  53.2167  87.0879 0001421  93.1948 266.9206 15.08845904 82218,6917.862,95.437,540.71,538.744,0.0
52989.0,STARLINK-4293,PAYLOAD,2024-01-01 14:53:50,15.08848966,0.0001423,53.217,86.7893,94.0249,266.0905,3.2152e-05,2.24e-06,0.0,0 STARLINK-4293,1 52989U 22076D   24001.62071772  .00000224  00000-0  32152-4 0  9994,2 52989  53.2170  86.7893 0001423  94.0249 266.0905 15.08848966 82690,6917.853,95.437,540.702,538.734,0.0
52989.0,STARLINK-4293,PAYLOAD,2024-01-02 11:33:50,15.08844128,0.0001294,53.2167,82.9263,84.9277,275.1863,9.3194e-05,1.196e-05,0.0,0 STARLINK-4293,1 52989U 22076D   24002.48183937  .00001196  00000-0  93194-4 0  9998,2 52989  53.2167  82.9263 0001294  84.9277 275.1863 15.08844128 82825,6917.868,95.437,540.628,538.838,0.0
52989.0,STARLINK-4293,PAYLOAD,2024-01-03 11:24:38,15.08836587,0.0001344,53.2168,78.4634,85.1055,275.0091,-2.3418e-05,-6.61e-06,0.0,0 STARLINK-4293,1 52989U 22076D   24003.47544920 -.00000661  00000-0 -23418-4 0  9991,2 52989  53.2168  78.4634 0001344  85.1055 275.0091 15.08836587 82979,6917.891,95.438,540.686,538.826,0.0
52989.0,STARLINK-4293,PAYLOAD,2024-01-04 11:15:25,15.08846113,0.0001571,53.2166,74.0057,66.6685,293.4472,5.9818e-05,6.64e-06,0.0,0 STARLINK-4293,1 52989U 22076D   24004.46904164  .00000664  00000-0  59818-4 0  9995,2 52989  53.2166  74.0057 0001571  66.6685 293.4472 15.08846113 83124,6917.862,95.437,540.814,538.64,0.0
52989.0,STARLINK-4293,PAYLOAD,2024-01-05 11:06:13,15.08832465,0.0001617,53.2179,69.5444,99.3226,260.7949,5.3071e-05,5.57e-06,0.0,0 STARLINK-4293,1 52989U 22076D   24005.46265077  .00000557  00000-0  53071-4 0  9995,2 52989  53.2179  69.5444 0001617  99.3226 260.7949 15.08832465 83279,6917.903,95.438,540.887,538.65,0.0
52989.0,STARLINK-4293,PAYLOAD,2024-01-06 09:21:36,15.08842205,0.000154,53.2173,65.3821,94.9763,265.1405,-2.6645e-06,-3.3e-06,0.0,0 STARLINK-4293,1 52989U 22076D   24006.39000846 -.00000330  00000-0 -26645-5 0  9998,2 52989  53.2173  65.3821 0001540  94.9763 265.1405 15.08842205 83413,6917.874,95.437,540.804,538.673,0.0
52989.0,STARLINK-4293,PAYLOAD,2024-01-07 10:47:47,15.08839379,0.0001444,53.2172,60.6232,88.0255,272.0902,4.9839e-05,5.05e-06,0.0,0 STARLINK-4293,1 52989U 22076D   24007.44985056  .00000505  00000-0  49839-4 0  9991,2 52989  53.2172  60.6232 0001444  88.0255 272.0902 15.08839379 83573,6917.882,95.438,540.746,538.748,0.0
52989.0,STARLINK-4293,PAYLOAD,2024-01-07 12:23:10,15.08841307,0.0001512,53.2175,60.3256,97.4914,262.625,7.0125e-05,8.28e-06,0.0,0 STARLINK-4293,1 52989U 22076D   24007.51608848  .00000828  00000-0  70125-4 0  9990,2 52989  53.2175  60.3256 0001512  97.4914 262.6250 15.08841307 83116,6917.876,95.437,540.787,538.695,0.0
52989.0,STARLINK-4293,PAYLOAD,2024-01-08 12:13:57,15.08841325,0.0001464,53.2168,55.8629,97.0378,263.0781,3.8401e-05,3.23e-06,0.0,0 STARLINK-4293,1 52989U 22076D   24008.50969054  .00000323  00000-0  38401-4 0  9990,2 52989  53.2168  55.8629 0001464  97.0378 263.0781 15.08841325 83267,6917.876,95.437,540.754,538.729,0.0
52989.0,STARLINK-4293,PAYLOAD,2024-01-09 12:04:43,15.08848111,0.0001458,53.2169,51.4038,85.2046,274.9113,0.00010735,1.421e-05,0.0,0 STARLINK-4293,1 52989U 22076D   24009.50328508  .00001421  00000-0  10735-3 0  9993,2 52989  53.2169  51.4038 0001458  85.2046 274.9113 15.08848111 83415,6917.856,95.437,540.729,538.712,0.0
52989.0,STARLINK-4293,PAYLOAD,2024-01-10 08:44:45,15.08835971,0.0001455,53.2191,47.5305,96.1184,263.9974,3.3526e-05,2.46e-06,0.0,0 STARLINK-4293,1 52989U 22076D   24010.36441454  .00000246  00000-0  33526-4 0  9993,2 52989  53.2191  47.5305 0001455  96.1184 263.9974 15.08835971 84014,6917.893,95.438,540.764,538.751,0.0
52989.0,STARLINK-4293,PAYLOAD,2024-01-11 11:46:18,15.08843772,0.0001648,53.2179,42.4764,97.7088,262.4091,4.1659e-05,3.75e-06,0.0,0 STARLINK-4293,1 52989U 22076D   24011.49048901  .00000375  00000-0  41659-4 0  9997,2 52989  53.2179  42.4764 0001648  97.7088 262.4091 15.08843772 84187,6917.869,95.437,540.874,538.594,0.0
52989.0,STARLINK-4293,PAYLOAD,2024-01-12 02:04:46,15.08836133,0.0001856,53.2184,39.7998,102.2643,257.8557,1.7918e-05,-3e-08,0.0,0 STARLINK-4293,1 52989U 22076D   24012.08665509 -.00000003  00000-0  17918-4 0  9992,2 52989  53.2184  39.7998 0001856 102.2643 257.8557 15.08836133 84279,6917.892,95.438,541.041,538.473,0.0
52989.0,STARLINK-4293,PAYLOAD,2024-01-12 06:50:56,15.08839489,0.0001621,53.2171,38.9074,102.5357,257.5816,4.0174e-05,3.51e-06,0.0,0 STARLINK-4293,1 52989U 22076D   24012.28537230  .00000351  00000-0  40174-4 0  9998,2 52989  53.2171  38.9074 0001621 102.5357 257.5816 15.08839489 83839,6917.882,95.438,540.868,538.626,0.0
52989.0,STARLINK-4293,PAYLOAD,2024-01-13 01:55:35,15.08828147,0.000176,53.2176,35.3448,93.5445,266.5749,-0.00013259,-2.397e-05,0.0,0 STARLINK-4293,1 52989U 22076D   24013.08027276 -.00002397  00000-0 -13259-3 0  9998,2 52989  53.2176  35.3448 0001760  93.5445 266.5749 15.08828147 84421,6917.917,95.438,540.999,538.564,0.0
52989.0,STARLINK-4293,PAYLOAD,2024-01-13 09:52:31,15.08820085,0.0001478,53.2169,33.8568,107.2553,252.8601,-0.0001743,-3.059e-05,0.0,0 STARLINK-4293,1 52989U 22076D   24013.41148148 -.00003059  00000-0 -17430-3 0  9998,2 52989  53.2169  33.8568 0001478 107.2553 252.8601 15.08820085 84471,6917.941,95.439,540.829,538.784,0.0
52989.0,STARLINK-4293,PAYLOAD,2024-01-14 00:10:59,15.08830334,0.0001727,53.2168,31.1818,89.8032,270.3158,7.2171e-05,8.6e-06,0.0,0 STARLINK-4293,1 52989U 22076D   24014.00763364  .00000860  00000-0  72171-4 0  9996,2 52989  53.2168  31.1818 0001727  89.8032 270.3158 15.08830334 84563,6917.91,95.438,540.97,538.58,0.0
52989.0,STARLINK-4293,PAYLOAD,2024-01-14 06:32:31,15.0883894,0.0001773,53.2183,29.9981,100.1279,259.9914,0.00011964,1.616e-05,0.0,0 STARLINK-4293,1 52989U 22076D   24014.27258772  .00001616  00000-0  11964-3 0  9999,2 52989  53.2183  29.9981 0001773 100.1279 259.9914 15.08838940 84606,6917.884,95.438,540.975,538.522,0.0
52989.0,STARLINK-4293,PAYLOAD,2024-01-15 07:58:41,15.08839051,0.0001734,53.2166,25.2353,83.1843,276.9347,0.00031806,4.777e-05,0.0,0 STARLINK-4293,1 52989U 22076D   24015.33242452  .00004777  00000-0  31806-3 0  9993,2 52989  53.2166  25.2353 0001734  83.1843 276.9347 15.08839051 84763,6917.883,95.438,540.948,538.549,0.0
52989.0,STARLINK-4293,PAYLOAD,2024-01-16 09:24:52,15.08844537,0.0001851,53.2176,20.4779,92.7142,267.4062,-6.5563e-05,-1.332e-05,0.0,0 STARLINK-4293,1 52989U 22076D   24016.39227018 -.00001332  00000-0 -65563-4 0  9995,2 52989  53.2176  20.4779 0001851  92.7142 267.4062 15.08844537 84923,6917.867,95.437,541.012,538.451,0.0
